IRIDIUM 36 [-]          
1 24967U 97056C   24058.59558599  .00000782  00000+0  25909-3 0  9993
2 24967  86.4009  12.6914 0002378  88.1717 271.9752 14.36650351383913
IRIDIUM 39 [-]          
1 25042U 97069D   24058.49945656  .00001084  00000+0  28765-3 0  9994
2 25042  86.3881  54.9029 0020650  93.3245 267.0321 14.47714952380104
IRIDIUM 38 [-]          
1 25043U 97069E   24058.56787148  .00000619  00000+0  20194-3 0  9994
2 25043  86.3903  73.1415 0001372 158.8367 201.2887 14.37108982377623
IRIDIUM 42 [-]          
1 25077U 97077A   24058.55990582  .00000563  00000+0  18950-3 0  9992
2 25077  86.3905  78.7387 0001790 104.1839 255.9556 14.35403573372944
IRIDIUM 44 [-]          
1 25078U 97077B   24058.53644574  .00000688  00000+0  21559-3 0  9995
2 25078  86.3909  61.9360 0003542 117.0665 243.0896 14.39223967375265
IRIDIUM 45 [-]          
1 25104U 97082A   24058.58783269  .00010738  00000+0  65077-3 0  9991
2 25104  86.3699 274.0444 0166994 281.2315  77.0188 14.99426086380266
IRIDIUM 24 [-]          
1 25105U 97082B   24058.62185416  .00000557  00000+0  16712-3 0  9997
2 25105  86.3870 281.7006 0010570 198.6389 161.4425 14.40999445374701
IRIDIUM 51 [-]          
1 25262U 98018A   24058.58204211  .00013375  00000+0  68368-3 0  9997
2 25262  86.3909 284.1967 0151376 228.7526 130.0589 15.07010603374739
